{"type":"FeatureCollection","features":[{"type":"Feature","geometry":{"type":"Polygon","coordinates":[[[17.1038,48.1397],[17.1105,48.1395],[17.113966,48.139766],[17.116864,48.141427],[17.114612,48.142772],[17.113675,48.143783],[17.112134,48.145114],[17.107816,48.147453],[17.113464,48.152773],[17.107096,48.153822],[17.103496,48.149247],[17.100469,48.148031],[17.0985,48.1465],[17.095,48.144],[17.09565,48.140302],[17.1038,48.1397]]]},"properties":{"name":"Bratislava – Staré Mesto core + hradný vrch / Podhradie"}},{"type":"Feature","geometry":{"type":"Polygon","coordinates":[[[-0.123797,51.510605],[-0.159668,51.515327],[-0.193666,51.506142],[-0.139244,51.485685],[-0.132676,51.486375],[-0.128839,51.489346],[-0.125021,51.493261],[-0.122727,51.50687],[-0.123797,51.510605]]]},"properties":{}},{"type":"Feature","geometry":{"type":"Polygon","coordinates":[[[-0.123797,51.510605],[-0.159668,51.515327],[-0.193666,51.506142],[-0.139244,51.485685],[-0.132676,51.486375],[-0.128839,51.489346],[-0.125021,51.493261],[-0.122727,51.50687],[-0.123797,51.510605]]]},"properties":{}}]}